[{"OBJECT_NAME":"ONEWEB-0527","OBJECT_ID":"2022-166A","EPOCH":"2026-03-09T22:23:09.901536","MEAN_MOTION":13.21825842,"ECCENTRICITY":0.00016911,"INCLINATION":87.9162,"RA_OF_ASC_NODE":263.7887,"ARG_OF_PERICENTER":92.3626,"MEAN_ANOMALY":267.7701,"EPHEMERIS_TYPE":0,"CLASSIFICATION_TYPE":"U","NORAD_CAT_ID":54642,"ELEMENT_SET_NO":999,"REV_AT_EPOCH":15842,"BSTAR":8.6148436e-5,"MEAN_MOTION_DOT":4.9e-7,"MEAN_MOTION_DDOT":0},{"OBJECT_NAME":"DELTA 1 DEB","OBJECT_ID":"1975-052CM","EPOCH":"2026-03-09T23:51:28.608768","MEAN_MOTION":13.31415563,"ECCENTRICITY":0.00738465,"INCLINATION":99.8139,"RA_OF_ASC_NODE":144.9341,"ARG_OF_PERICENTER":227.2579,"MEAN_ANOMALY":306.1508,"EPHEMERIS_TYPE":0,"CLASSIFICATION_TYPE":"U","NORAD_CAT_ID":21367,"ELEMENT_SET_NO":999,"REV_AT_EPOCH":68958,"BSTAR":0.00021272808,"MEAN_MOTION_DOT":6.1e-7,"MEAN_MOTION_DDOT":0}]
